"","shopname","lat","lng","addr","telephone"
"1","역삼아레나빌딩","37.501087","127.043069","서울특별시 강남구 언주로 425 (역삼동)","02-568-3762"
"2","논현역사거리","37.510178","127.022223","서울특별시 강남구 강남대로 538 (논현동)","02-3442-3672"
"3","국기원사거리","37.499517","127.031495","서울특별시 강남구 테헤란로 125 (역삼동)","02-568-3668"
"4","대치대원빌딩R","37.494668","127.062583","서울특별시 강남구 남부순환로 2947 (대치동)","02-568-3704"
"5","삼성역섬유센터R","37.507750","127.060651","서울특별시 강남구 테헤란로 518 (대치동)","02-568-3648"
"6","압구정R","37.5273669","127.033061","서울특별시 강남구 언주로 861 (신사동)","02-541-3622"
"7","수서역R","37.488008","127.102650","서울특별시 강남구 광평로 281 (수서동)","02-6181-3688"
"8","양재강남빌딩R","37.485192","127.036685","서울특별시 강남구 남부순환로 2621 (도곡동)","02-571-3604"
"9","선릉동신빌딩R","37.505321","127.050409","서울특별시 강남구 테헤란로 409 (삼성동)","02-2051-3562"
"10","봉은사로선정릉","37.511293","127.048409","서울특별시 강남구 봉은사로 446 (삼성동)","02-539-3564"
"11","강남오거리","37.502117","127.026672","서울특별시 강남구 봉은사로2길 39 (역삼동)","02-557-3484"
"12","스타필드코엑스몰R","37.50999","127.061455","서울특별시 강남구 영동대로 513 (삼성동)","02-6002-3467"
"13","강남구청정문","37.518181","127.045995","서울특별시 강남구 학동로 419 (청담동)","02-514-3397"
"14","도곡공원","37.492805","127.041309","서울특별시 강남구 도곡로 205 (역삼동)","02-565-3496"
"15","강남R","37.497711","127.028439","서울특별시 강남구 강남대로 390 (역삼동)","02-561-3478"
"16","대치은마사거리","37.498973","127.060172","서울특별시 강남구 도곡로 457 (대치동)","02-554-3315"
"17","청담영동대로","37.522156","127.056449","서울특별시 강남구 영동대로 720 (청담동)","02-3443-3371"
"18","압구정","37.526283","127.029560","서울특별시 강남구 압구정로30길 17 (신사동)","02-541-3306"
"19","신사가로수","37.521852","127.022510","서울특별시 강남구 압구정로12길 32 (신사동)","02-3446-3356"
"20","청담스타R","37.525216","127.041827","서울특별시 강남구 도산대로57길 24 (청담동)","02-514-3364"
"21","강남우성","37.492396","127.030910","서울특별시 강남구 강남대로 328 (역삼동)","02-565-3347"
"22","학동사거리","37.52236449999999","127.03795430000002","서울특별시 강남구 도산대로 328 (논현동) HS빌딩","02-758-8971"
"23","대치사거리","37.503331","127.058817","서울특별시 강남구 삼성로 402 (대치동)","02-561-3287"
"24","포스코사거리","37.5075307","127.05742710000004","서울특별시 강남구 테헤란로 505 (삼성동) 화진빌딩","02-554-3235"
"25","을지병원사거리","37.5191632","127.0286446","서울특별시 강남구 논현로 752 (논현동,구산빌딩)","02-758-8896"
"26","신사역","37.5162021","127.0207428","서울특별시 강남구 도산대로 108 (논현동) 렉스타워","02-758-8848"
"27","도곡역","37.492167","127.057398","서울특별시 강남구 남부순환로 2909 (대치동)","02-758-8809"
"28","서울세관사거리","37.514887","127.035653","서울특별시 강남구 언주로 650 (논현동) 한국건설기술인협회","02-758-8798"
"29","청담사거리","37.5236351","127.04686509999999","서울특별시 강남구 도산대로 458 (청담동) 리츠타워","02-758-8726"
"30","한티역","37.496801","127.055055","서울특별시 강남구 도곡로 408, 디마크빌딩 101호 (대치동)","02-758-8683"
"31","역삼초교사거리","37.4941059","127.03299730000003","서울특별시 강남구 역삼로 123 (역삼동)","02-758-8739"
"32","코엑스몰","37.511921","127.059024","서울특별시 강남구 영동대로 513 (삼성동) 코엑스","02-758-8733"
"33","가로수길","37.5231593","127.02162499999997","서울특별시 강남구 논현로175길 94, 1~2층 (신사동)","02-758-8661"
"34","역삼대로","37.501623","127.039375","서울특별시 강남구 테헤란로 211, 한국고등교육재단빌딩 1층 (역삼동)","02-758-8626"
"35","역삼포스코","37.499721","127.033582","서울특별시 강남구 테헤란로 134, P&S TOWER (역삼동)","02-758-8631"
"36","강남대로","37.50314","127.025546","서울특별시 강남구 강남대로 456, 한석타워 2층 1-2호 (역삼동)","02-758-8624"
"37","청담","37.5243631","127.05155990000003","서울특별시 강남구 도산대로 532, 인희빌딩 1층 (청담동)","02-758-8659"
"38","삼성도심공항","37.5097863","127.05791339999996","서울특별시 강남구 테헤란로87길 33 (삼성동)","02-758-8635"
"39","삼성교","37.507794","127.06517","서울특별시 강남구 영동대로86길 12, ,9,10번지 동남유화빌딩 (대치동)","02-758-8592"
"40","학동역","37.51464884","127.0307302","서울특별시 강남구 논현로 704 (논현동)","02-758-8101"
"41","대치","37.49966175","127.0622171","서울특별시 강남구 도곡로 511 (대치동)","02-758-8063"
"42","기술센터","37.50329211","127.0436409","서울특별시 강남구 테헤란로 305, 한국기술센터 1층 (역삼동)","02-6009-3410"
"43","SSG마켓도곡R","37.490298","127.054895","서울특별시 강남구 언주로30길 57, 타워팰리스Ⅱ F 지하1층 (도곡동)","02-2191-1219"
"44","삼성","37.50703529","127.0555503","서울특별시 강남구 테헤란로 443, 애플트리타워 1층 (삼성동)","02-758-8038"
"45","선릉세화빌딩","37.50377562","127.051196","서울특별시 강남구 테헤란로64길 18, 세화빌딩 1층 (대치동)","02-758-8028"
"46","압구정역","37.52674095","127.0281105","서울특별시 강남구 압구정로 170, 관영빌딩 1층 지하1층 (신사동)","02-758-8013"
"47","압구정로","37.52680046","127.0347174","서울특별시 강남구 압구정로42길 32 (신사동)","02-758-8231"
"48","구역삼사거리","37.49592355","127.0388645","서울특별시 강남구 논현로 401 (역삼동)","02-758-8247"
"49","큰길타워","37.50236693","127.0407","서울특별시 강남구 테헤란로 223, 큰길타워빌딩 (역삼동)","02-758-8116"
"50","강남구청역","37.5165849","127.04124330000002","서울특별시 강남구 선릉로 669, 웰빙센터 1층 (논현동)","02-758-8119"
"51","대치역","37.493554","127.061874","서울특별시 강남구 남부순환로 2936, 원플러스 상가107호 (대치동)","02-758-8120"
"52","포이","37.47781106","127.0451411","서울특별시 강남구 논현로 88 (개포동)","02-758-8122"
"53","아크플레이스","37.49971982","127.0349084","서울특별시 강남구 테헤란로 142 (역삼동)","02-758-8158"
"54","학여울역","37.49803646","127.0684943","서울특별시 강남구 영동대로 215 (대치동)","02-758-8151"
"55","선정릉역","37.51075489999999","127.04455970000003","서울특별시 강남구 봉은사로 407 (삼성동) 에프오빌딩","02-758-8970"
"56","삼성현대힐","37.51354184","127.0527183","서울특별시 강남구 삼성로 605 (삼성동)","02-758-8278"
"57","GS타워","37.5018592","127.03727759999992","서울특별시 강남구 논현로 508 (역삼동)","02-758-8129"
"58","압구정미소","37.52405601","127.027915","서울특별시 강남구 논현로 841 (신사동)","02-758-8109"
"59","선릉역","37.50393894","127.0485135","서울특별시 강남구 테헤란로 334, LG화재 빌딩 (역삼동)","02-758-8108"
"60","수서","37.48801132","127.1017508","서울특별시 강남구 밤고개로1길 10 (수서동) 수서현대벤쳐빌 지하2층","02-758-8165"
"61","코엑스사거리","37.515351","127.060109","서울특별시 강남구 영동대로 616 (삼성동)","02-758-8478"
"62","역삼럭키","37.492209","127.039389","서울특별시 강남구 도곡로 183 (역삼동)","02-758-8463"
"63","차병원사거리","37.508032","127.035373","서울특별시 강남구 봉은사로 213, 센트럴타워 (논현동)","02-758-8444"
"64","청담공원","37.5186549","127.05143870000006","서울특별시 강남구 학동로 506 (삼성동)","02-758-8394"
"65","신압구정","37.528115","127.036441","서울특별시 강남구 언주로174길 29 (신사동)","02-758-8398"
"66","아크로힐스논현","37.50898041","127.0403869","서울특별시 강남구 봉은사로 304, 금강빌딩 1-2층 (역삼동)","02-758-8317"
"67","뱅뱅사거리","37.488585","127.032415","서울특별시 강남구 강남대로 282 (도곡동)","02-758-8325"
"68","강남비젼타워","37.4964557","127.02968850000002","서울특별시 강남구 테헤란로2길 27, 1층 101호 (역삼동)","02-758-8492"
"69","역삼역","37.50080096","127.0351577","서울특별시 강남구 테헤란로 145, 우신빌딩 1층 (역삼동)","02-758-8314"
"70","압구정로데오역","37.526549","127.040437","서울특별시 강남구 선릉로 836, 삼원빌딩 1,2층 (청담동)","02-758-8345"
"71","르네상스사거리","37.502721","127.044308","서울특별시 강남구 테헤란로 306 (역삼동)","02-758-8321"
"72","포스코","37.50576","127.057966","서울특별시 강남구 삼성로86길 7, 1층 (대치동)","02-758-8331"
"73","선릉로","37.505053","127.046577","서울특별시 강남구 선릉로93길 22, 대흥빌딩 1층 (역삼동)","02-758-8552"
"74","삼성역","37.510015","127.063864","서울특별시 강남구 테헤란로103길 9 (삼성동)","02-758-8585"
"75","논현힐탑","37.5115577","127.03226199999994","서울특별시 강남구 논현로 648 (논현동)","02-758-8426"
"76","도산가로수길","37.51736229999999","127.02329570000006","서울특별시 강남구 도산대로 134, 2층 (논현동)","02-758-8429"
"77","미아뉴타운","37.618319","127.021072","서울특별시 강북구 삼양로 161 (미아동)","02-980-3341"
"78","강북구청사거리","37.6400354","127.0273766","서울특별시 강북구 도봉로 365 (수유동)","02-758-8944"
"79","미아사거리역","37.611809","127.0306971","서울특별시 강북구 도봉로 32 (미아동)","02-758-8859"
"80","수유역","37.6380167","127.02613500000007","서울특별시 강북구 도봉로 342 (번동)","02-758-8104"
"81","미아역","37.626148","127.026578","서울특별시 강북구 도봉로 196 (미아동)","02-758-8500"
"82","발산역사거리","37.558597"," 126.835359","서울특별시 강서구 공항대로 248 (마곡동)","02-2661-3792"
"83","우장산역","37.549501","126.835984","서울특별시 강서구 강서로 267 (내발산동)","02-2664-2624"
"84","마곡사이언스타워R","37.561492","126.833954","서울특별시 강서구 마곡동로 62 (마곡동)","02-2659-3585"
"85","방화DT","37.574339","126.816415","서울특별시 강서구 방화대로 375 (방화동)","02-2664-3480"
"86","마곡나루역","37.56813","126.82614","서울특별시 강서구 마곡중앙로 161-17 (마곡동)","02-3662-3504"
"87","마곡GMG","37.560487","126.829667","서울특별시 강서구 마곡중앙6로 16 (마곡동) 117,118,119,120호","02-2659-3404"
"88","가양역","37.561640","126.853327","서울특별시 강서구 양천로 476 (등촌동)","02-3661-3418"
"89","화곡DT","37.535149","126.863232","서울특별시 강서구 등촌로 57 (화곡동)","02-2648-3257"
"90","양천향교역","37.566964","126.840731","서울특별시 강서구 강서로 463 (마곡동)","02-2658-3312"
"91","화곡동","37.5405115","126.8372413","서울특별시 강서구 화곡로 142(화곡동)","02-758-8881"
"92","등촌","37.5582043","126.84433919999992","서울특별시 강서구 공항대로 329 (등촌동)","02-758-8883"
"93","염창역","37.547359","126.874436","서울특별시 강서구 공항대로 627 (염창동)","02-758-8694"
"94","발산역","37.56033","126.839279","서울특별시 강서구 강서로 388 (등촌동) 그랜드마트","02-758-8720"
"95","가양이마트","37.5578966","126.86229779999996","서울특별시 강서구 양천로 559, 가양이마트 1층 (가양동)","02-758-8070"
"96","까치산역","37.532303","126.846077","서울특별시 강서구 강서로13길 3 (화곡동)","02-758-8538"
"97","낙성대역","37.477980","126.961246","서울특별시 관악구 남부순환로 1908 (봉천동)","02-882-3794"
"98","관악서울대입구R","37.479343","126.952780","서울특별시 관악구 관악로 158 (봉천동)","02-883-3725"
"99","신림DT","37.480935","126.908407","서울특별시 관악구 남부순환로 1419 (신림동)","02-851-3283"
"100","서울대역","37.481599","126.952200","서울특별시 관악구 남부순환로 1817 (봉천동)","02-876-3252"
"101","낙성대DT","37.476169","126.965005","서울특별시 관악구 남부순환로 1948 (봉천동)","02-872-3249"
"102","사당","37.47601","126.980997","서울특별시 관악구 남부순환로 2082-25","02-758-8721"
"103","보라매대교","37.491449","126.925432","서울특별시 관악구 보라매로3길 23, 대교빌딩 1층 (봉천동)","02-758-8629"
"104","신림사거리","37.484768","126.930467","서울특별시 관악구 남부순환로 1619 (신림동)","02-758-8645"
"105","신림","37.48609493","126.9291602","서울특별시 관악구 신림로 355-1 (신림동)","02-758-8290"
"106","신림역포도몰","37.48385383","126.9301799","서울특별시 관악구 신림로 330, PODO MALL 1층 101 일부 (신림동)","02-758-8286"
"107","서울대입구역","37.48118","126.951324","서울특별시 관악구 남부순환로 1812 (봉천동)","02-758-8460"
"108","건국대","37.5415592","127.0711244","서울특별시 광진구 능동로 117 (화양동)","02-3409-3722"
"109","어린이대공원역","37.551946","127.076404","서울시 광진구 능동로243","02-464-3656"
"110","아차산역","37.5505388","127.0898757","서울시 광진구 천호대로 676","02-455-3637"
"111","올림픽대교북단","37.541129","127.095240","서울특별시 광진구 광나루로 608 (구의동)","02-453-3514"
"112","구의DT","37.5451984","127.0871587","서울특별시 광진구 광나루로 519 (구의동)","02-758-8901"
"113","자양사거리","37.5371158","127.0825821","서울특별시 광진구 아차산로 355","02-758-8865"
"114","군자역","37.556703","127.078916","서울특별시 광진구 천호대로 548 (군자동) 중앙빌딩","02-758-8748"
"115","광나루","37.547442","127.105934","서울특별시 광진구 아차산로 607, 1,2층 (광장동)","02-758-8648"
"116","건대스타시티","37.53780432","127.0725451","서울특별시 광진구 아차산로 262 (자양동)","02-758-8197"
"117","자양","37.5354769","127.06914619999998","서울특별시 광진구 능동로 50 (자양동)","02-758-8159"
"118","강변역","37.536155","127.093086","서울특별시 광진구 구의강변로 64 (구의동) 구의아크로리버","02-758-8759"
"119","건대입구","37.5406604","127.07072249999999","서울특별시 광진구 능동로 107 (화양동)","02-758-8305"
"120","구의역","37.53698","127.084015","서울특별시 광진구 아차산로 373 (구의동)","02-758-8476"
"121","광장","37.542857","127.099789","서울특별시 광진구 아차산로 537-17 (광장동)","02-758-8508"
"122","건국클래식","37.53838","127.070709","서울특별시 광진구 능동로 90 (자양동) 더 클래식500","02-758-8519"
"123","가산에스케이","37.48061318","126.8805702","서울특별시 금천구 가산디지털1로 171 (가산동)","02-6244-8046"
"124","독산사거리","37.471511","126.898775","서울특별시 금천구 시흥대로 426 (독산동)","02-838-3444"
"125","금천시흥","37.448624","126.903183","서울특별시 금천구 시흥대로 164 (시흥동)","02-805-3360"
"126","가산디지털단지역","37.481324","126.883779","서울특별시 금천구 벚꽃로 298 (가산동)","02-2083-8302"
"127","금천독산","37.46914","126.895246","서울특별시 금천구 두산로 70 (독산동)","02-758-8765"
"128","가산디지털","37.4798346","126.88249969999992","서울특별시 금천구 가산디지털1로 168 (가산동)","02-758-8147"
"129","W-Mall","37.47730499","126.8876908","서울특별시 금천구 디지털로 188 (가산동)","02-758-8196"
"130","마리오아울렛","37.478701","126.885076","서울특별시 금천구 벚꽃로 266 마리오아울렛3관","02-758-8542"
"131","가산브이타워","37.477221","126.883683","서울특별시 금천구 가산디지털1로 128 (가산동)","02-758-8371"
"132","가산그레이트","37.4794491","126.88747680000006","서울특별시 금천구 디지털로9길 32, 갑을그레이트밸리 1층 (가산동)","02-758-8346"
"133","월계트레이더스","37.6277053","127.06149779999998","서울시 노원구 마들로3길 15","02-971-3748"
"134","상계초교사거리","37.656776","127.066442 ","서울 노원구 노원로 449","02-931-3660"
"135","공릉DT","37.6206884","127.0743116","서울특별시 노원구 동일로 1015 (공릉동)","02-971-3457"
"136","노원마들역","37.660941","127.058008","서울특별시 노원구 노원로 569 (상계동, 임광아파트)","02-934-3438"
"137","공릉역","37.626337","127.072252","서울특별시 노원구 동일로 1081 (공릉동)","02-972-3380"
"138","서울여대","37.626163","127.093084","서울특별시 노원구 화랑로 621 (공릉동)","02-758-8647"
"139","은행사거리","37.65048737","127.0759861","서울특별시 노원구 중계로 217, 중흥빌딩 103,203호 (중계동)","02-758-8238"
"140","노원KT","37.654562","127.063617","서울특별시 노원구 노해로 502, (주)KT 노원사옥 (상계동)","02-758-8523"
"141","광운대","37.6231479","127.06070090000003","서울특별시 노원구 석계로 104 (월계동)","02-758-8485"
"142","중계역","37.64817","127.062244","서울특별시 노원구 동일로 1339, 대한빌딩 (상계동)","02-758-8567"
"143","노원역","37.654751","127.060034","서울특별시 노원구 동일로 1413, 1층 (상계동)","02-758-8584"
"144","월계이마트","37.627155","127.062094","서울특별시 노원구 마들로3길 15 (월계동)","02-758-8573"
"145","창동이마트","37.651645","127.046869","서울특별시 도봉구 노해로65길 4 (창동)","02-903-3791"
"146","쌍문역","37.648456","127.034783","서울특별시 도봉구 도봉로 480 (창동)","02-758-8691"
"147","노량진동","37.513068","126.946537","서울특별시 동작구 노량진로 190 (노량진동, 고려교육타워-어바니엘한강) 101호~105호","02-3280-3816"
"148","남성역","37.4841198","126.9725739","서울특별시 동작구 사당로 219 (사당동)","02-533-3783"
"149","보라매공원R","37.49226212712864","126.92334570798292","서울특별시 동작구 보라매로5길 35 (신대방동, 파크스퀘어,보라매현대APT)","02-832-3693"
"150","이수자이","37.484414","126.980047","서울특별시 동작구 사당로 300 (사당동 이수자이)","02-588-3657"
"151","노량진역","37.513390","126.940879","서울특별시 동작구 노량진로 134 (노량진동)","02-816-3581"
"152","신대방삼거리역","37.499914","126.931766","서울특별시 동작구 상도로 102 (상도동)","02-813-3501"
"153","중앙대","37.506933","126.958125","서울특별시 동작구 흑석로 75-1 (흑석동)","02-812-3250"
"154","숭실대입구역","37.4968346","126.95271230000003","서울특별시 동작구 상도로 354 (상도동)","02-815-3205"
"155","숭실대","37.49538073","126.9548891","서울특별시 동작구 사당로 4 (상도동)","02-758-8153"
"156","사당역","37.47849216","126.9813456","서울특별시 동작구 동작대로 21, 양지빌딩 1-3층 (사당동)","02-758-8311"
"157","서강대프라자","37.551073","126.943096","서울특별시 마포구 백범로 35 (신수동)","02-702-3804"
"158","상암YTN","37.579183","126.892315","서울특별시 마포구 상암산로 76 (상암동)","02-304-3752"
"159","마포용강동","37.541186","126.942209","서울특별시 마포구 토정로 295 (용강동)","02-3275-3655"
"160","홍대입구역사거리R","37.554636","126.92036","서울특별시 마포구 양화로 125 (서교동)","02-325-3531"
"161","마포경찰서후문","37.550800","126.953432","서울특별시 마포구 마포대로 173-14 (아현동)","02-392-3555"
"162","공덕","37.545913","126.952956","서울특별시 마포구 마포대로 130 (공덕동)","02-716-3426"
"163","합정폴리스R","37.5509","126.9134","서울특별시 마포구 양화로 45 (서교동, 메세나폴리스)","02-324-3587"
"164","홍대공항철도역","37.557491","126.925146","서울특별시 마포구 양화로 178 (동교동)","02-332-3516"
"165","마포염리","37.543876","126.947680","서울특별시 마포구 독막로 311 (염리동)","02-3272-3331"
"166","서강광흥창역","37.549377","126.931661","서울특별시 마포구 서강로 69 (창전동)","02-325-3351"
"167","합정","37.549630","126.912999","서울특별시 마포구 월드컵로1길 14 (합정동) 마포한강푸르지오 110, 111, 112-2","02-323-3214"
"168","서강대흥역","37.548178","126.941576","서울특별시 마포구 백범로 89-5 (대흥동)","02-3272-3335"
"169","서교동사거리","37.553376","126.918564","서울특별시 마포구 양화로 105 (서교동)","02-326-5218"
"170","상암사보이시티","37.581470","126.888983","서울특별시 마포구 월드컵북로54길 17 (상암동)","02-373-3225"
"171","신촌오거리","37.555137","126.934694","서울특별시 마포구 신촌로16길 10 (노고산동)","02-334-3275"
"172","상암디지털큐브","37.5763132","126.8892477","서울특별시 마포구 상암산로 34","02-758-8890"
"173","상수역","37.5474817","126.92321579999998","서울특별시 마포구 독막로 88 (상수동)","02-758-8925"
"174","공덕오거리","37.5424641","126.95057730000008","서울특별시 마포구 마포대로 86 (도화동) 창강빌딩","02-758-8933"
"175","서교","37.551385","126.9169208","서울특별시 마포구 양화로 78 (서교동) 서교빌딩 1층","02-758-8856"
"176","서강대","37.5524584","126.9378262","서울특별시 마포구 백범로 23 (신수동)","02-758-8783"
"177","상암MBC","37.581297","126.890908","서울특별시 마포구 성암로 267 (상암동)","02-758-8787"
"178","홍대역","37.557175","126.923654","서울특별시 마포구 양화로 165, 상진빌딩 1층 (동교동)","02-758-8672"
"179","동교","37.556928","126.919819","서울특별시 마포구 월드컵북로 22, 영준빌딩 1층 (동교동)","02-758-8637"
"180","애오개역","37.55218737","126.9555203","서울특별시 마포구 마포대로 201, 마포트라팰리스II (아현동)","02-758-8272"
"181","홍대갤러리","37.55328184","126.9248279","서울특별시 마포구 와우산로 101, 정명빌딩 (서교동)","02-758-8293"
"182","상암DMC","37.577623","126.890684","서울특별시 마포구 월드컵북로 375, DMC이안오피스텔1단지 102호,202호 (상암동)","02-6393-6219"
"183","마포일진빌딩","37.54043451","126.9463168","서울특별시 마포구 마포대로 45, 일진빌딩 1층 (도화동)","02-758-8265"
"184","마포아크로","37.54145556","126.948819","서울특별시 마포구 마포대로 68 (도화동) 마포아크로타워","02-758-8217"
"185","홍대삼거리","37.550266","126.923179","서울특별시 마포구 와우산로 64 (상수동)","02-758-8402"
"186","망원역","37.555829","126.910637","서울특별시 마포구 월드컵로 74 (서교동)","02-758-8365"
"187","마포이마트","37.542421","126.953341","서울특별시 마포구 백범로 212 (신공덕동) 마포이마트","02-758-8467"
"188","합정메세나몰","37.551004","126.913848","서울특별시 마포구 양화로 45 (서교동, 메세나폴리스)","02-758-8534"
"189","가재울뉴타운","37.5749841","126.9164441","서울 서대문구 가재울미래로 2","02-304-3724"
"190","신촌역","37.556167","126.934673","서울특별시 서대문구 신촌로 73 (창천동)","02-336-3529"
"191","연희동","37.566702","126.930475","서울특별시 서대문구 연희로 97 (연희동)","02-326-3372"
"192","아현역","37.557820","126.956058","서울특별시 서대문구 신촌로35길 10 (북아현동, E편한세상신촌 4단지)","02-312-3430"
"193","홍제역","37.588658","126.943864","서울특별시 서대문구 통일로 451 (홍제동)","02-396-3383"
"194","연세백양로","37.562644","126.937529","서울특별시 서대문구 연세로 50 (신촌동) 연세대학교","02-758-8977"
"195","명지대","37.5782618","126.92232330000001","서울특별시 서대문구 거북골로 53 (남가좌동)","02-758-8908"
"196","연희DT","37.5702143","126.9339777","서울특별시 서대문구 연희로 144 (연희동)","02-758-8893"
"197","경기대","37.56367995","126.9646045","서울특별시 서대문구 충정로 53 (충정로2가)","02-758-8163"
"198","신촌대로","37.55624543","126.9392796","서울특별시 서대문구 신촌로 121 (창천동)","02-758-8090"
"199","신촌","37.55648577","126.9371155","서울특별시 서대문구 연세로 10-1 (창천동)","02-758-8035"
"200","이대R","37.55848315","126.9459643","서울특별시 서대문구 이화여대길 34 (대현동)","02-758-8001"
"201","연세종합관","37.56177145","126.9414708","서울특별시 서대문구 연세로 50, 연세세브란스 종합관 (신촌동)","02-758-8244"
"202","이대ECC","37.561631","126.947350","서울특별시 서대문구 이화여대길 52 (대현동) 이화여자대학교 B415호","02-758-8240"
"203","연대","37.558706","126.936727","서울특별시 서대문구 연세로 35 (창천동)","02-758-8439"
"204","신촌아트레온","37.556505","126.940238","서울특별시 서대문구 신촌로 129 (창천동)","02-758-8401"
"205","충정로역","37.56137","126.963219","서울특별시 서대문구 충정로 23","02-758-8479"
"206","연대동문","37.566385","126.946273","서울특별시 서대문구 성산로 565 (대신동)","02-758-8450"
"207","신촌명물거리","37.557796","126.938095","서울특별시 서대문구 명물길 24, 1-5층 (창천동)","02-365-8330"
"208","충정타워","37.559869","126.964110","서울특별시 서대문구 서소문로 21, 충정타워빌딩 1층 (충정로3가)","02-758-8333"
"209","방배로","37.4793434","126.9994968","서울특별시 서초구 방배로 52 (방배동)","02-3487-3814"
"210","강남교보타워R","37.503789","127.024075","서울특별시 서초구 강남대로 465 (서초동)","02-534-3604"
"211","방배다이치빌딩","37.484329","126.995872","서울특별시 서초구 방배로 114 (방배동)","02-3473-3576"
"212","센트럴F1","37.505148","127.004395","서울특별시 서초구 신반포로 176 (반포동)","02-537-3598"
"213","서초역이화빌딩","37.487931","127.009126","서울특별시 서초구 반포대로21길 3 (서초동)","02-522-3533"
"214","서초구청","37.484206","127.030103","서울특별시 서초구 남부순환로 2557 (서초동)","02-3471-3545"
"215","서초우성사거리","37.493545","127.029430","서울특별시 서초구 강남대로 343 (서초동)","02-3486-3536"
"216","이수역사거리","37.485850","126.983027","서울특별시 서초구 서초대로 3-4 (방배동, 방배디오슈페리움1)","02-3476-3472"
"217","강남대로신사","37.514890","127.019469","서울특별시 서초구 강남대로 595 (잠원동)","02-516-3402"
"218","서울고속터미널","37.504406","127.005648","서울특별시 서초구 신반포로 194 (반포동)","02-592-3432"
"219","강남대로논현R","37.507413","127.022568","서울특별시 서초구 강남대로85길 5 (반포동)","02-515-3419"
"220","방배","37.491914","126.99049739999998","서울특별시 서초구 방배로 211","02-536-3204"
"221","방배카페거리","37.4934767","126.9865297","서울특별시 서초구 방배중앙로 162 (방배동)","02-536-3206"
"222","서초법원","37.492970","127.011875","서울특별시 서초구 서초대로 274 (서초동)","02-523-3294"
"223","청계산입구역","37.447323","127.056250","서울특별시 서초구 청계산로 203 (신원동)","02-577-3253"
"224","사당로데오","37.4772752","126.98216049999996","서울특별시 서초구 방배천로 5-4(방배동)","02-758-8953"
"225","파미에파크R","37.5030521","127.004362","서울특별시 서초구 사평대로 205 (반포동) CENTRALCITY","02-758-8790"
"226","교대역","37.494207","127.01394","서울특별시 서초구 서초중앙로 138 (서초동) 우림빌딩","02-758-8757"
"227","양재역","37.4820475","127.0367682","서울특별시 서초구 강남대로 202 (양재동) 모산빌딩","02-758-8816"
"228","논현역","37.5111983","127.0205875","서울특별시 서초구 강남대로 557 (잠원동) 1~2층","02-758-8819"
"229","이수역","37.4864664","126.98274029999993","서울특별시 서초구 동작대로 112 (방배동)","02-758-8794"
"230","내방역","37.490004","126.992455","서울특별시 서초구 방배로 184 (방배동) 대풍빌딩","02-758-8740"
"231","서초파라곤","37.494941","127.027422","서울특별시 서초구 서초대로74길 29 (서초동) 서초파라곤","02-758-8716"
"232","서울아트센터","37.480866","127.012368","서울특별시 서초구 남부순환로 2395 (서초동) 호경빌딩","02-758-8738"
"233","서초중앙로","37.501691","127.01152","서울특별시 서초구 서초중앙로 225","02-758-8715"
"234","센트럴시티","37.504707","127.004459","서울특별시 서초구 신반포로 176 (반포동)","02-758-8656"
"235","강남삼성타운","37.49562035","127.0277144","서울특별시 서초구 서초대로78길 24 (서초동)","02-758-8213"
"236","방배역","37.48200755","126.9976438","서울특별시 서초구 방배로 84 (방배동)","02-758-8086"
"237","반포역","37.508589","127.011959","서울특별시 서초구 신반포로 257 (잠원동) 신반포11차상가","02-758-8141"
"238","남부터미널","37.48467334","127.0169464","서울특별시 서초구 서초중앙로 26, 래미안서초유니빌 1층 101호 (서초동)","02-758-8085"
"239","뉴코아강남","37.51031339","127.0069582","서울특별시 서초구 잠원로 69 (잠원동) 킴스클럽","02-758-8032"
"240","강남2","37.5000875","127.02549090000002","서울특별시 서초구 서초대로77길 27, 유빌딩 1,2층 (서초동)","02-758-8081"
"241","교대","37.4923611","127.0142207","서울특별시 서초구 서초중앙로 118 (서초동)","02-758-8073"
"242","하이브랜드","37.46330766","127.0368447","서울특별시 서초구 매헌로 16, 리빙관 101호 (양재동)","02-2155-4117"
"243","신논현역","37.50529","127.023636","서울특별시 서초구 강남대로 483 (반포동) 청호빌딩","02-758-8756"
"244","영동2교","37.48203954","127.0425748","서울특별시 서초구 논현로 139, 대흥빌딩 (양재동)","02-758-8291"
"245","남부터미널2","37.48436736","127.0142192","서울특별시 서초구 효령로 274 (서초동)","02-758-8229"
"246","서래마을입구","37.49925284","126.9984801","서울특별시 서초구 서래로 48 (반포동)","02-3482-8257"
"247","몬테소리","37.4982695","127.026865","서울특별시 서초구 강남대로 399 (서초동)","02-758-8225"
"248","서초역","37.49067495","127.0086118","서울특별시 서초구 반포대로 118 (서초동)","02-758-8289"
"249","예술의전당","37.48115265","127.0134724","서울특별시 서초구 남부순환로323길 1, 1층 (서초동)","02-758-8313"
"250","교대법원","37.496329","127.013336","서울특별시 서초구 서초중앙로 164 (서초동)","02-758-8400"
"251","강남GT타워","37.498056","127.02583300000003","서울특별시 서초구 서초대로 411, GT타워 (서초동)","02-758-8477"
"252","서초동","37.485941","127.021525","서울특별시 서초구 남부순환로339길 64, 현우빌딩 1층 (서초동)","02-758-8459"
"253","서울교대","37.487397","127.015134","서울특별시 서초구 서초중앙로 64, 1층 (서초동)","02-758-8332"
"254","강남에비뉴","37.5027","127.023894","서울특별시 서초구 서초대로77길 62, 강남역아이파크 B102~B105 (서초동)","02-758-8587"
"255","미아이마트","37.610678","127.029921","서울 성북구 도봉로 17","02-982-3806"
"256","종암DT","37.5919525","127.0360401","서울특별시 성북구 종암로 17 (종암동)","02-925-3469"
"257","미아","37.607581","127.029303","서울특별시 성북구 동소문로 314 (하월곡동)","02-913-3364"
"258","성신여대정문","37.590910","127.018800","서울특별시 성북구 보문로34길 62 (동선동2가)","02-922-3281"
"259","종암","37.601095","127.033847","서울특별시 성북구 종암로 122 (종암동)","02-758-8980"
"260","삼선교","37.588696","127.00732070000003","서울특별시 성북구 동소문로 10 (동소문동2가)","02-758-8714"
"261","월곡역","37.601718","127.040446","서울특별시 성북구 화랑로 76, 101-1호 (하월곡동)","02-758-8608"
"262","고대","37.58397192","127.0297352","서울특별시 성북구 고려대로 24길 51 (안암동5가)","02-758-8067"
"263","현대미아","37.60837822","127.0287483","서울특별시 성북구 동소문로 315, 현대백화점미아점 지하 1층 (길음동)","02-758-8203"
"264","성신여대","37.593135","127.018379","서울특별시 성북구 동소문로24길 12 (동선동1가)","02-758-8499"
"265","안암역","37.586319","127.030556","서울특별시 성북구 고려대로 102-2 (안암동5가)","02-758-8541"
"266","한성대입구역","37.589054","127.004839","서울특별시 성북구 성북로 11 (성북동1가)","02-758-8455"
"267","송파나루역DT","37.510793","127.1102658","서울특별시 송파구 오금로 142 (송파동)","02-421-3622"
"268","잠실시그마타워","37.514567","127.102493","서울특별시 송파구 올림픽로 289 (신천동)","02-417-3614"
"269","문정법원로R","37.487447","127.119164","서울특별시 송파구 송파대로 201 (문정동)","02-881-5012"
"270","송파개롱역","37.496956","127.13652","서울특별시 송파구 오금로 420 (가락동)","02-401-3574"
"271","문정하비오","37.481925","127.123446","서울특별시 송파구 송파대로 111 (문정동, 파크하비오) 204동 104호~107호","02-401-3431"
"272","문정역","37.484813","127.122237","서울특별시 송파구 송파대로 167 (문정동)테라타워 B동 137호~139호,204호","02-2054-3836"
"273","잠실대교남단R","37.515511","127.099006","서울특별시 송파구 올림픽로35길 141 (신천동)","02-416-0020"
"274","송파위례","37.478264","127.144067","서울특별시 송파구 위례광장로 230 (장지동, 위례2차아이파크)","02-3012-3457"
"275","송파방이DT","37.506564","127.120495","서울특별시 송파구 오금로 241 (방이동)","02-414-3269"
"276","송파구청","37.514573","127.107404","서울특별시 송파구 오금로 87 (방이동)","02-2145-0300"
"277","올림픽평화의문","37.5156426","127.11648190000005","서울특별시 송파구 위례성대로 38 (방이동) 해태그린피아빌라트","02-758-8983"
"278","송파아이파크","37.479892","127.122379","서울특별시 송파구 법원로 55 (문정동)","02-409-3245"
"279","송파사거리","37.5022788","127.1103904","서울특별시 송파구 송파대로 386 (송파동)","02-758-8931"
"280","석촌서호","37.5063929","127.0964684","서울특별시 송파구 석촌호수로 176 (삼전동)","02-758-8874"
"281","문정로데오","37.491905","127.1262696","서울특별시 송파구 동남로 141 (가락동)","02-758-8860"
"282","올림픽훼미리","37.491626","127.116308","서울특별시 송파구 중대로 68 (문정동)","02-758-8793"
"283","올림픽공원남문","37.5133","127.123113","서울특별시 송파구 위례성대로 102 (방이동)","02-758-8769"
"284","방이역","37.508666","127.126569","서울특별시 송파구 마천로 53, 1~2층 (오금동)","02-758-8698"
"285","석촌호수","37.509581","127.104993","서울특별시 송파구 석촌호수로 262 (송파동)","02-758-8693"
"286","잠실푸르지오월드","37.517649","127.103426","서울특별시 송파구 올림픽로35가길 9, 잠실푸르지오월드마크 1층 (신천동)","02-758-8652"
"287","잠실새내역","37.511679","127.081062","서울특별시 송파구 올림픽로 96 (잠실동)","02-758-8643"
"288","잠실역","37.515272","127.099231","서울특별시 송파구 송파대로 562, 한빛프라자 1층, 2층 (신천동)","02-758-8077"
"289","갤러리아팰리스","37.51108365","127.0938059","서울특별시 송파구 올림픽로 212, 갤러리아 팰리스 (잠실동)","02-758-8118"
"290","아시아선수촌","37.51052862","127.0790472","서울특별시 송파구 백제고분로 69 (잠실동)","02-758-8124"
"291","올림픽아파트","37.515315","127.133237","서울특별시 송파구 양재대로 1222 (방이동)","02-758-8580"
"292","가락본동","37.494895","127.118785","서울특별시 송파구 송파대로30길 13 (가락동)","02-758-8495"
"293","석촌역","37.5042626","127.10610769999994","서울특별시 송파구 백제고분로 358, 1층 (석촌동)","02-758-8350"
"294","가락시장역","37.494299","127.121354","서울특별시 송파구 중대로 121, 롯데캐슬 파인힐 1층 (가락동)","02-758-8469"
"295","가든파이브","37.4782316","127.11937030000001","서울특별시 송파구 충민로 10 (문정동) 가든파이브툴","02-758-8406"
"296","목동파리공원","37.535336","126.878852","서울특별시 양천구 목동동로 377 (목동)","02-2643-3818"
"297","등촌역","37.548884","126.868070","서울특별시 양천구 공항대로 566 (목동) 1층 2층","02-2645-3631"
"298","목동행복한","37.529147","126.876099","서울특별시 양천구 목동동로 309 (목동)","02-2643-3652"
"299","신정DT","37.521993","126.858865","서울특별시 양천구 신월로 341 (신정동)","02-2604-3441"
"300","목동역","37.526684","126.863986","서울특별시 양천구 목동로 203 (신정동) 1층일부","02-2602-3505"
"301","목동오목로","37.525923","126.868438","서울특별시 양천구 오목로 279 (목동) 102,103,104,105호","02-2642-3326"
"302","목동8단지","37.520518","126.868841","서울특별시 양천구 목동서로 299 (신정동)","02-2061-3381"
"303","오목교역","37.5235882","126.87652120000007","서울특별시 양천구 오목로 354 (목동)","02-758-8941"
"304","신월IC DT","37.5294984","126.831983","서울특별시 양천구 남부순환로 430 (신월동)","02-758-8930"
"305","목동7단지","37.528012","126.87053","서울특별시 양천구 목동서로 213 (목동) 세신비젼프라자","02-758-8842"
"306","목동하이페리온","37.524931","126.870316","서울특별시 양천구 오목로 300 (목동)","02-758-8610"
"307","목동5단지","37.536706","126.88212","서울특별시 양천구 목동동로 411, 1동 116호(목동, 부영그린타운3차)","02-758-8615"
"308","목동","37.53638383","126.8785597","서울특별시 양천구 목동서로 67 (목동) 우성에펠타운","02-758-8099"
"309","현대목동","37.526848","126.875023","서울특별시 양천구 목동동로 257, 현대백화점목동점 지하 2층 (목동)","02-2163-1750"
"310","목동파라곤","37.52947","126.874996","서울특별시 양천구 목동서로 155, 목동파라곤 1층 (목동)","02-758-8353"
"311","타임스퀘어R","37.517139","126.903606","서울특별시 영등포구 영중로 15 (영등포동4가)","02-2671-9902"
"312","샛강역","37.5183551","126.9312716","서울특별시 영등포구 여의대방로 376 (여의도동)","02-780-3743"
"313","영등포역","37.5169614","126.9091390","서울특별시 영등포구 경인로 870 (영등포동1가)","02-2068-3692"
"314","당산대로","37.533121","126.903804","서울특별시 영등포구 양평로 22 (당산동6가)","02-2631-3397"
"315","여의도IFC몰(L1)R","37.525127","126.925508","서울특별시 영등포구 국제금융로 10 (여의도동) 지하1층 178호","02-6137-5178"
"316","여의도KBS R","37.526596","126.918456","서울특별시 영등포구 의사당대로 26 (여의도동)","02-782-3470"
"317","여의도화재보험","37.521345","126.926004","서울특별시 영등포구 국제금융로6길 38 (여의도동)","02-782-3565"
"318","국회대로","37.530260","126.919549","서울특별시 영등포구 국회대로 786 (여의도동)","02-761-3466"
"319","영등포KT","37.526792","126.904706","서울특별시 영등포구 영중로 119 (영등포동8가)","02-2671-3369"
"320","여의도공원R","37.529231","126.924872","서울특별시 영등포구 여의공원로 101 (여의도동)","02-3775-3359"
"321","국회의사당역","37.527831","126.916882","서울특별시 영등포구 의사당대로 8 (여의도동)","02-780-3346"
"322","선유도역","37.537268","126.894594","서울특별시 영등포구 양평로 115 (양평동4가)","02-2634-3258"
"323","여의도역","37.523328","126.923439","서울특별시 영등포구 의사당대로 83 (여의도동) 한국휴렛팩커드빌딩","02-761-3236"
"324","선유동이레빌딩","37.534109","126.896912","서울특별시 영등포구 선유동2로 57 (양평제1동) 이레빌딩","02-2068-3224"
"325","동여의도","37.5199494","126.9317957","서울특별시 영등포구 국제금융로 86 (여의도동) 롯데캐슬 아이비","02-758-8875"
"326","여의도ABL타워","37.518749","126.92779","서울특별시 영등포구 의사당대로 147 (여의도동) 알리안츠타워","02-758-8834"
"327","영등포신길DT","37.504566","126.910073","서울특별시 영등포구 신길로 137 (신길동)","02-758-8813"
"328","문래역","37.517428","126.896475","서울특별시 영등포구 당산로 34 (문래동3가)","02-758-8833"
"329","당산","37.535164","126.899942","서울특별시 영등포구 양평로 64 (당산동6가)","02-758-8713"
"330","여의도한양증권","37.522418","126.929093","서울특별시 영등포구 국제금융로6길 7 (여의도동) 한양증권","02-758-8711"
"331","여의도일신","37.528","126.920103","서울특별시 영등포구 은행로 11 (여의도동) 1층 1부","02-758-8695"
"332","신세계영등포B2","37.517162","126.905608","서울특별시 영등포구 영중로 9, 신세계백화점 B관 지하2층 (영등포동4가)","02-2639-4072"
"333","하이테크시티","37.51467062","126.8986474","서울특별시 영등포구 경인로 775 (문래동3가) 에이스하이테크시티","02-758-8210"
"334","당산역","37.5344337","126.90187630000002","서울특별시 영등포구 당산로 231, 대원빌딩 1,2층 (당산동6가)","02-758-8270"
"335","서여의도","37.52958977","126.920272","서울특별시 영등포구 국회대로70길 15-1 (여의도동)","02-758-8008"
"336","여의도","37.52403519","126.9245179","서울특별시 영등포구 국제금융로2길 28 (여의도동)","02-758-8007"
"337","롯데캐슬여의도","37.52025214","126.9263678","서울특별시 영등포구 의사당대로 127 (여의도동) 롯데캐슬앰파이어 1층 104호","02-758-8127"
"338","문래동","37.519602","126.889652","서울특별시 영등포구 선유로 64, 대창타운빌 1층 (문래동3가)","02-758-8324"
"339","신세계영등포B","37.517162","126.905608","서울특별시 영등포구 영중로 9, 신세계백화점 B관 1층 (영등포동4가)","02-2639-4058"
"340","여의도호성","37.520176","126.929426","서울특별시 영등포구 여의대방로65길 24, 호성빌딩 1층 (여의도동)","02-758-8379"
"341","타임스퀘어B2","37.516985","126.903387","서울특별시 영등포구 영중로 15, 타임스퀘어 단지 지하2층 (영등포동4가)","02-758-8415"
"342","영등포본동","37.518713","126.909559","서울특별시 영등포구 영등포로 254 (영등포동3가)","02-758-8335"
"343","타임스퀘어","37.516985","126.903387","서울특별시 영등포구 영중로 15 (영등포동4가) 타임스퀘어","02-758-8303"
"344","여의도의사당","37.530023","126.92109","서울특별시 영등포구 국회대로74길 12, 남중빌딩 1층 (여의도동)","02-758-8348"
"345","여의도IFC(1F)","37.525273","126.924668","서울특별시 영등포구 국제금융로 10 (여의도동)","02-6137-9955"
"346","불광역","37.6093820","126.9303971","서울시 은평구 통일로 715","02-352-3711"
"347","구파발사거리","37.639617","126.91881","서울시 은평구 진관3로 21 은평엘크루 101동 105-108호","02-389-3557"
"348","연신내역사거리","37.618620","126.922062","서울특별시 은평구 통일로 842 (불광동)","02-358-3491"
"349","연신내","37.620417","126.919913","서울특별시 은평구 통일로 867 (갈현동)","02-388-3348"
"350","구파발역","37.63446","126.918881","서울특별시 은평구 진관2로 12","02-758-8934"
"351","은평구청입구","37.601042","126.926789","서울특별시 은평구 은평로 170 (응암동)","02-758-8762"
"352","은평이마트","37.60037923","126.9202735","서울특별시 은평구 은평로 111 (응암동)","02-758-8139"
"353","구산역","37.611745","126.917678","서울특별시 은평구 연서로 146 (대조동)","02-758-8515"
"354","연합뉴스","37.5743289","126.9804590000005","서울특별시 종로구 율곡로2길 25 (수송동)","02-730-3742"
"355","혜화역","37.5824779","127.0021850","서울시 종로구 대학로12길 4 1~2층","02-742-3673"
"356","경희궁로","37.571759","126.972343","서울특별시 종로구 새문안로3길 15 (당주동)","02-730-3761"
"357","종로평창동","37.606149","126.967213","서울특별시 종로구 평창12길 3 (평창동)","02-396-3631"
"358","광화문우체국","37.569854","126.978083","서울특별시 종로구 종로 6 (서린동)","02-733-3592"
"359","더종로R","37.570804","126.983494","서울특별시 종로구 종로 51 (종로2가)","02-722-3507"
"360","독립문역","37.571432","126.961269","서울특별시 종로구 통일로 168-1 (교남동)","02-737-3544"
"361","정부서울청사R","37.574411","126.973571","서울특별시 종로구 새문안로5가길 28 (적선동)","02-722-3549"
"362","동묘앞역","37.572700","127.016072","서울특별시 종로구 종로 344 (숭인동, 대우디오빌) 101호 일부, 201호 일부","02-2234-4265"
"363","종로구청","37.572662","126.981138","서울특별시 종로구 삼봉로 71 (수송동)","02-6281-3272"
"364","북촌로","37.579462","126.986431","서울특별시 종로구 북촌로4길 23 (계동)","02-758-8827"
"365","종로수송","37.5714931","126.9807831","서울특별시 종로구 종로5길 30 (청진동) 1~3층","02-758-8818"
"366","새문안로","37.5696597","126.9748903","서울특별시 종로구 새문안로 92 (신문로1가) 광화문오피시아빌딩","02-758-8788"
"367","안국","37.577338","126.985635","서울특별시 종로구 북촌로 5-1 (재동)","02-758-8779"
"368","삼청동","37.585381","126.9817512","서울특별시 종로구 삼청로 111-1 (삼청동)","02-758-8771"
"369","광화문D타워","37.5714","126.9788297","서울특별시 종로구 종로3길 17 (청진동) D타워","02-758-8954"
"370","서울극장","37.56975769","126.9917911","서울특별시 종로구 돈화문로 13 (관수동) 서울극장","02-758-8269"
"371","적선","37.57520431","126.9739361","서울특별시 종로구 새문안로5길 55, 노스게이트빌딩 1층 (적선동)","02-758-8050"
"372","인사","37.5721293","126.98703490000002","서울특별시 종로구 인사동길 14 (인사동)","02-758-8022"
"373","영풍문고","37.5695584","126.9821243","서울특별시 종로구 청계천로 41 (서린동) 영풍빌딩","02-758-8083"
"374","광화문R","37.5712293","126.9762872","서울특별시 종로구 세종대로 167, 현대해상본사사옥 별관내 (세종로)","02-758-8036"
"375","성대입구","37.582892","126.998392","서울특별시 종로구 창경궁로 235 (명륜3가)","02-758-8249"
"376","스페이스본","37.57532212","126.9692494","서울특별시 종로구 사직로8길 4 (사직동) 광화문 풍림스페이스본","02-758-8235"
"377","주얼리시티","37.57154914","126.998705","서울특별시 종로구 종로 183 (인의동) 효성주얼리시티","02-6744-4882"
"378","종각","37.5699183","126.98452810000003","서울특별시 종로구 종로 64 (종로2가)","02-758-8169"
"379","광교","37.568928","126.9842163","서울특별시 종로구 청계천로 59 (관철동)","02-758-8154"
"380","동숭로아트","37.582969","127.003876","서울특별시 종로구 동숭길 110 (동숭동)","02-758-8430"
"381","종로관철","37.569058","126.986013","서울특별시 종로구 종로12길 21, 2층 (관철동)","02-758-8360"
"382","경복궁역","37.5771508","126.97274530000004","서울특별시 종로구 자하문로4길 6, 1층 (통의동)","02-758-8359"
"383","이마빌딩","37.5738637","126.97897149999994","서울특별시 종로구 종로1길 42 (수송동)","02-758-8405"
"384","대명거리","37.58349633","127.0011593","서울특별시 종로구 대명길 5 (명륜4가)","02-758-8316"
"385","마로니에공원","37.58154296","127.0023412","서울특별시 종로구 대학로 116, 1-2층 (동숭동)","02-758-8315"
"386","종로3가","37.5705527","126.9902055","서울특별시 종로구 종로 113-1, 1-4층 (종로3가)","02-758-8339"
"387","대학로","37.576509","127.001449","서울특별시 종로구 대학로 57, 홍익대학교 대학로캠퍼스 內 (연건동)","02-758-8558"
"388","경복궁사거리","37.575578","126.980581","서울특별시 종로구 율곡로 6, B동 101호(중학동, 트윈트리타워)","02-758-8386"
"389","종로관수","37.569385","126.988665","서울특별시 종로구 삼일대로20길 13 (관수동)","02-758-8560"
"390","숭례문북창","37.561725","126.976838","서울특별시 중구 세종대로12길 12 (남대문로4가)","02-3789-3661"
"391","동대문두타","37.56892512604548","127.00878383484597","서울특별시 중구 장충단로 275 (을지로6가)","02-3398-4241"
"392","대한상공회의소R","37.560938","126.973702","서울시 중구 세종대로 39 상공회의소회관 1층","02-6050-1180"
"393","명동센트럴","37.564669","126.985233","서울특별시 중구 명동9길 16 (명동1가)","02-3789-3640"
"394","국립중앙의료원","37.5665160","127.0062376","서울특별시 중구 을지로 251 (을지로6가)","02-2269-3667"
"395","동국대","37.561542","126.998437","서울특별시 중구 서애로 1길 11","02-2269-3296"
"396","신세계본점5F","37.560951","126.981134","서울특별시 중구 소공로 63 (충무로1가)","02-310-1514"
"397","을지로내외빌딩R","37.566479","126.983663","서울특별시 중구 을지로 51 (을지로2가)","02-754-3429"
"398","대우재단빌딩","37.556781","126.975081","서울특별시 중구 퇴계로 18 (남대문로5가)","02-6366-1381"
"399","동대문공원","37.565133","127.007191","서울특별시 중구 장충단로 229 (광희동1가)","02-2279-3345"
"400","을지로국제빌딩","37.566952","126.982219","서울특별시 중구 남대문로 109 (다동)","02-752-3464"
"401","동대입구역","37.559593","127.006142","서울특별시 중구 장충단로 166 (장충동1가)","02-2264-3364"
"402","신당역사거리","37.565807","127.016430","서울특별시 중구 다산로 258 (흥인동)","02-2253-3318"
"403","연세세브란스","37.557207","126.973540","서울특별시 중구 통일로 10 (남대문로5가)","02-2259-3331"
"404","회현역","37.5589809","126.98074670000005","서울특별시 중구 퇴계로 72 (회현동) 리더스뷰남산","02-758-8986"
"405","을지로경기빌딩","37.567172","126.983156","서울특별시 중구 남대문로10길 9 (삼각동) 경기빌딩","02-758-8981"
"406","을지로2가","37.566347","126.988066","서울특별시 중구 삼일대로 358 (을지로2가)","02-6250-8280"
"407","신세계본점6F","37.560381","126.980758","서울특별시 중구 퇴계로 77 (충무로1가)","02-310-1431"
"408","서울중앙우체국","37.561678","126.982117","서울특별시 중구 소공로 70 (충무로 1가) 서울 중앙 우체국","02-758-8979"
"409","한국프레스센터","37.567381","126.977859","서울특별시 중구 세종대로 124 (태평로1가)","02-722-3263"
"410","명동중앙로","37.5637485","126.9857723","서울특별시 중구 명동길 60 (명동 2가)","02-758-8903"
"411","약수역","37.555437","127.0107253","서울특별시 중구 다산로 129 (신당동)","02-758-8862"
"412","중구저동","37.5643686","126.9903382","서울특별시 중구 수표로 34 (저동2가)","02-758-8857"
"413","명동길","37.5620695","126.9858669","서울특별시 중구 명동10길 41","02-758-8849"
"414","소공로북창","37.5636856","126.9789237","서울특별시 중구 세종대로18길 32 (소공동) 삼원빌딩","02-758-8843"
"415","서소문로","37.563006","126.974546","서울특별시 중구 서소문로 120 (서소문동) 대한빌딩","02-758-8832"
"416","신당역","37.565522","127.014554","서울특별시 중구 퇴계로 385, 1층 (흥인동)","02-758-8669"
"417","명동메트로","37.565118","126.983681","서울특별시 중구 명동9가길 14 (을지로1가) 메트로호텔","02-758-8764"
"418","숭례문","37.55874473","126.9730952","서울특별시 중구 세종대로 17, 와이즈타워 1층 (남대문로5가)","02-758-8087"
"419","순화동더샵","37.560072","126.971931","서울특별시 중구 칠패로 27, 1층 (순화동)","02-758-8209"
"420","대한극장","37.56105065","126.9952735","서울특별시 중구 퇴계로 212 (필동 2가)","02-758-8030"
"421","소공동","37.564448","126.979157","서울특별시 중구 소공로 112 (소공동)","02-758-8140"
"422","무교동","37.56781712","126.978738","서울특별시 중구 무교로 21 (무교동) 코오롱빌딩 1층","02-758-8037"
"423","문화일보","37.56712291","126.9686642","서울특별시 중구 새문안로 22 (충정로1가) 문화일보","02-758-8047"
"424","태평로","37.56248285","126.9767928","서울특별시 중구 세종대로 72, 대영빌딩 1층 (태평로2가)","02-758-8039"
"425","퍼시픽타워","37.56132157","126.9730264","서울특별시 중구 세종대로9길 41, 퍼시픽타워 1층 (서소문동)","02-758-8079"
"426","남산단암","37.55853622","126.9754585","서울특별시 중구 소월로 10, 단암빌딩 (남대문로5가)","02-758-8306"
"427","황학캐슬","37.57124","127.022905","서울특별시 중구 청계천로 400 (황학동) 롯데캐슬베네치아","02-2048-5257"
"428","서소문","37.5633773","126.97551290000001","서울특별시 중구 서소문로 130 (서소문동)","02-758-8181"
"429","명동미래","37.564064","126.984487","서울특별시 중구 명동 7길 8, 2층 (명동 1가)","02-758-8318"
"430","을지로삼화타워","37.566902","126.984707","서울특별시 중구 을지로5길 16 삼화타워1층","02-758-8483"
"431","소공로","37.5637273","126.98076809999998","서울특별시 중구 남대문로7길 19, 삼영빌딩 1층 일부 (소공동)","02-758-8569"
"432","서소문배재","37.5628481","126.97216639999999","서울특별시 중구 서소문로 99 (서소문동)","02-758-8409"
"433","을지로한국빌딩","37.565722","126.98329","서울특별시 중구 을지로 50, 1층 (을지로 2가)","02-758-8385"
"434","순화동에이스","37.563528","126.969144","서울특별시 중구 통일로 92 (순화동) KG타워","02-758-8372"
"435","시청","37.566290","126.979808","서울특별시 중구 을지로 19, 삼성화재삼성빌딩 1층 (을지로1가)","02-758-8504"
"436","시청플러스","37.566338","126.980055","서울특별시 중구 을지로 19, 삼성화재삼성빌딩 1층 (을지로1가)","02-758-8505"
"437","충무로역","37.561499","126.993864","서울특별시 중구 퇴계로 197, 충무빌딩 1층 (필동 2가)","02-758-8395"
"438","명동역","37.560832","126.983095","서울특별시 중구 퇴계로 101, 건물 전체 (충무로 1가)","02-758-8562"
"439","남산스테이트","37.560205","126.982791","서울특별시 중구 퇴계로 100 (회현동2가)","02-758-8539"
"440","명동입구","37.563319","126.982242","서울특별시 중구 남대문로 68-1 (명동2가)","02-758-8506"
"441","명일역","37.552580","127.143799","서울특별시 강동구 양재대로 1647 (명일동)","02-427-3681"
"442","강동구청DT","37.529437","127.123835","서울특별시 강동구 성내로 32 (성내동)","02-489-3652"
"443","강동암사DT","37.555054","127.130065","서울특별시 강동구 고덕로 43 (암사동)","02-426-3583"
"444","강동역","37.536047","127.133086","서울특별시 강동구 천호대로 1089 (천호동, 강동 헤르셔)","02-477-3319"
"445","둔촌동","37.522724","127.133943","서울특별시 강동구 양재대로 1303 (성내동) 평원빌딩","02-478-3240"
"446","천호로데오","37.5378069","127.12730940000006","서울특별시 강동구 천호대로 1037 (천호동)","02-758-8923"
"447","천호이마트","37.538933","127.125214","서울특별시 강동구 천호대로 1015-14 (천호동) 이마트별관","02-758-8732"
"448","길동역","37.5387433","127.1399879","서울특별시 강동구 양재대로 1487 (길동)","02-758-8776"
"449","상일동","37.550072","127.174258","서울특별시 강동구 상일로10길 36, 1~2층 (상일동)","02-758-8670"
"450","올림픽공원북문","37.525403","127.125932","서울특별시 강동구 강동대로 171 (성내동)","02-758-8761"
"451","천호역","37.53795191","127.1245793","서울특별시 강동구 천호대로 1012, 태승빌딩 (성내동)","02-758-8296"
"452","명일이마트","37.553991","127.155984","서울특별시 강동구 동남로75길 5 (명일동) 명일이마트별관주차장","02-758-8752"
"453","길동사거리","37.5346536","127.13839510000002","서울특별시 강동구 양재대로 1441, 1층 (길동)","02-758-8342"
"454","신도림","37.505517","126.883953","서울특별시 구로구 경인로 610 (신도림동)","02-2635-3516"
"455","구로디지털타워","37.483432","126.896480","서울특별시 구로구 디지털로32길 30 (구로동)","02-2103-5088"
"456","오류동역","37.4962155","126.8448614","서울특별시 구로구 경인로 216 (오류동)","02-758-8775"
"457","구로디지털로","37.485911","126.895587","서울특별시 구로구 디지털로33길 11, 에이스테크노8차 1층 (구로동)","02-758-8655"
"458","신세계아이앤씨","37.48587904","126.8916127","서울특별시 구로구 디지털로31길 61, 신세계디지털센터 101호 (구로동)","02-758-8092"
"459","구로에이스","37.48448329","126.8944957","서울특별시 구로구 디지털로 285, 에이스트윈타워1차 103호 (구로동)","02-758-8161"
"460","구로하이엔드","37.481618","126.893136","서울특별시 구로구 디지털로26길 5, 에이스하이엔드타워1차 103호 (구로동)","02-758-8340"
"461","현대디큐브2F","37.508636","126.889225","서울특별시 구로구 경인로 662 (신도림동)","02-2210-9237"
"462","구로호텔","37.4831293","126.89885909999998","서울특별시 구로구 디지털로32길 72, 구로호텔 1층 (구로동)","02-758-8555"
"463","현대디큐브B2","37.508828","126.889488","서울특별시 구로구 경인로 662 (신도림동)","02-2210-9797"
"464","답십리역","37.568466","127.051106","서울특별시 동대문구 천호대로 263 (답십리동)","02-2245-3417"
"465","경희대삼거리","37.591531","127.052017","서울특별시 동대문구 회기로 141 (회기동)","02-959-3391"
"466","외대정문","37.5953464","127.0590302","서울특별시 동대문구 이문로 93 (이문동)","02-965-3373"
"467","신설동역","37.5767228","127.0255446","서울특별시 동대문구 왕산로 19 (신설동)","02-758-8942"
"468","회기역사거리","37.590784","127.056098","서울특별시 동대문구 이문로 37 (회기동)","02-758-8767"
"469","외대","37.59575188","127.0614002","서울특별시 동대문구 휘경로 12-1 (이문동)","02-758-8132"
"470","장한평역","37.562337","127.065511","서울특별시 동대문구 장한로 10 (장안동)","02-758-8475"
"471","경희대","37.5928812","127.05280849999997","서울특별시 동대문구 경희대로 16-1 (회기동)","02-758-8351"
"472","뚝섬역","37.546432","127.049042","서울특별시 성동구 아차산로 42 (성수동1가)","02-469-3488"
"473","황학사거리","37.567644","127.023697","서울특별시 성동구 왕십리로 410 (하왕십리동, 센트라스)","02-2294-3409"
"474","성수역","37.543193","127.056943","서울특별시 성동구 성수이로 94 (성수동2가)","02-469-3460"
"475","상왕십리역","37.565169","127.027907","서울특별시 성동구 왕십리로 382 (하왕십리동)","02-2294-3342"
"476","왕십리역","37.5627541","127.0339072","서울특별시 성동구 왕십리로 326 (도선동)","02-758-8900"
"477","엔터식스한양대","37.5570379","127.04002","서울특별시 성동구 행당동 왕십리로 241 B1층","02-758-8846"
"478","한양대","37.55726984","127.0421649","서울특별시 성동구 왕십리로 225 (행당동)","02-758-8015"
"479","엔터식스","37.56175811","127.0383328","서울특별시 성동구 왕십리광장로 17 (행당동)","02-2200-6250"
"480","성수이마트","37.5396996","127.0530083","서울특별시 성동구 뚝섬로 379 (성수동2가) 이마트 성수점","02-758-8282"
"481","이태원역","37.534273","126.994789","서울특별시 용산구 이태원로 188 (이태원동)","02-798-9780"
"482","한강진역R","37.537131","127.000980","서울특별시 용산구 이태원로 252 (한남동)","02-797-3556"
"483","용산역써밋R","37.527586","126.965401","서울특별시 용산구 한강대로 69 (한강로2가, 용산푸르지오써밋)","02-749-3550"
"484","이촌","37.518605","126.977271","서울특별시 용산구 이촌로 276 (이촌동)","02-3785-3518"
"485","신용산역","37.528702","126.966757","서울특별시 용산구 한강대로 95 (한강로2가, 래미안용산)","02-794-3487"
"486","용산파크타워","37.523818","126.970389","서울특별시 용산구 서빙고로 67 (용산동5가, 파크타워)","02-3785-3386"
"487","남영동","37.542831","126.972242","서울특별시 용산구 한강대로 275 (갈월동)","02-3275-3320"
"488","한남동R","37.534850","127.010919","서울특별시 용산구 독서당로 94 (한남동)","070-7831-9088"
"489","서울타워","37.551102","126.988317","서울특별시 용산구 남산공원길 105 (용산동2가) YTN서울타워 1층","02-319-3246"
"490","서울역동자동","37.551752","126.972694","서울특별시 용산구 한강대로 372 (동자동)","02-758-8734"
"491","이태원거리","37.534988","126.99756","서울특별시 용산구 이태원로 213, 1,2층 (한남동)","02-758-8622"
"492","순천향입구","37.533394","127.00563","서울특별시 용산구 대사관로 67 (한남동)","02-758-8600"
"493","숙대","37.54460479","126.9672252","서울특별시 용산구 청파로47길 57 (청파동3가)","02-758-8191"
"494","동빙고","37.5289857","126.991782","서울특별시 용산구 장문로 12 (동빙고동)","02-798-8262"
"495","숙대입구역","37.544118","126.971891","서울특별시 용산구 한강대로 291 (갈월동)","02-758-8377"
"496","용산아이파크몰","37.5288539","126.96404469999993","서울특별시 용산구 한강대로23길 55","02-2012-2907"
"497","동부이촌동","37.52111","126.96905","서울특별시 용산구 이촌로 198 (이촌동)","02-758-8368"
"498","상봉","37.597842","127.092509","서울특별시 중랑구 상봉로 131 (상봉동, 상봉 듀오트리스 주상복합)","02-438-5223"
"499","중랑역","37.5930326","127.07473579999998","서울특별시 중랑구 망우로30길 3 (상봉동)","02-758-8935"
"500","중랑구청","37.60538908","127.0957558","서울특별시 중랑구 신내로 72","02-758-8887"
"501","사가정역","37.579594","127.087966","서울특별시 중랑구 면목로 310","02-758-8823"
"502","상봉역","37.59689","127.08647","서울특별시 중랑구 망우로 307, ,3,4번지 (상봉동)","02-758-8486"
"503","묵동이마트","37.613433","127.077484","서울특별시 중랑구 동일로 932, 묵동이마트 B1층 (묵동)","02-758-8370"
